NORAD_CAT_ID,OBJECT_NAME,OBJECT_TYPE,EPOCH,MEAN_MOTION,ECCENTRICITY,INCLINATION,RA_OF_ASC_NODE,ARG_OF_PERICENTER,MEAN_ANOMALY,BSTAR,MEAN_MOTION_DOT,MEAN_MOTION_DDOT,TLE_LINE0,TLE_LINE1,TLE_LINE2,SEMIMAJOR_AXIS,PERIOD,APOGEE,PERIGEE,DECAYED
56464.0,STARLINK-6043,PAYLOAD,2024-02-19 19:31:24,14.98329307,0.0002893,69.9996,232.5549,270.0888,89.994,-1.4243e-05,-2.63e-06,0.0,0 STARLINK-6043,1 56464U 23064S   24050.81347471 -.00000263  00000-0 -14243-4 0  9997,2 56464  69.9996 232.5549 0002893 270.0888  89.9940 14.98329307 43439,6950.195,96.107,574.071,570.049,0.0
56464.0,STARLINK-6043,PAYLOAD,2024-02-19 21:07:32,14.98329234,0.0002893,69.9996,232.3866,270.1417,89.941,-1.544e-05,-2.77e-06,0.0,0 STARLINK-6043,1 56464U 23064S   24050.88023468 -.00000277  00000-0 -15440-4 0  9996,2 56464  69.9996 232.3866 0002893 270.1417  89.9410 14.98329234 43080,6950.195,96.107,574.071,570.05,0.0
56464.0,STARLINK-6043,PAYLOAD,2024-02-20 14:45:00,14.98332321,0.0002893,69.9996,230.5348,269.1256,90.9572,-1.7934e-05,-3.07e-06,0.0,0 STARLINK-6043,1 56464U 23064S   24051.61459216 -.00000307  00000-0 -17934-4 0  9996,2 56464  69.9996 230.5348 0002893 269.1256  90.9572 14.98332321 43198,6950.186,96.107,574.061,570.04,0.0
56464.0,STARLINK-6043,PAYLOAD,2024-02-20 19:33:24,14.98331792,0.0002897,69.9996,230.0298,268.729,91.3537,-2.1752e-05,-3.53e-06,0.0,0 STARLINK-6043,1 56464U 23064S   24051.81487226 -.00000353  00000-0 -21752-4 0  9994,2 56464  69.9996 230.0298 0002897 268.7290  91.3537 14.98331792 43584,6950.187,96.107,574.066,570.039,0.0
56464.0,STARLINK-6043,PAYLOAD,2024-02-20 21:09:33,14.98331316,0.0002897,69.9996,229.8615,268.6476,91.4351,-2.6525e-05,-4.09e-06,0.0,0 STARLINK-6043,1 56464U 23064S   24051.88163257 -.00000409  00000-0 -26525-4 0  9991,2 56464  69.9996 229.8615 0002897 268.6476  91.4351 14.98331316 43237,6950.189,96.107,574.067,570.04,0.0
56464.0,STARLINK-6043,PAYLOAD,2024-02-21 14:47:01,14.98328286,0.0002993,69.9995,228.0098,269.6982,90.3834,1.658e-05,1.05e-06,0.0,0 STARLINK-6043,1 56464U 23064S   24052.61599287  .00000105  00000-0  16580-4 0  9990,2 56464  69.9995 228.0098 0002993 269.6982  90.3834 14.98328286 43340,6950.198,96.107,574.143,569.983,0.0
56464.0,STARLINK-6043,PAYLOAD,2024-02-21 19:35:25,14.98328503,0.0003017,69.9995,227.5048,269.4774,90.604,1.1538e-05,4.5e-07,0.0,0 STARLINK-6043,1 56464U 23064S   24052.81627290  .00000045  00000-0  11538-4 0  9999,2 56464  69.9995 227.5048 0003017 269.4774  90.6040 14.98328503 43731,6950.198,96.107,574.159,569.966,0.0
56464.0,STARLINK-6043,PAYLOAD,2024-02-21 21:11:34,14.98328687,0.0003013,69.9996,227.3365,269.5196,90.5618,1.3206e-05,6.5e-07,0.0,0 STARLINK-6043,1 56464U 23064S   24052.88303276  .00000065  00000-0  13206-4 0  9997,2 56464  69.9996 227.3365 0003013 269.5196  90.5618 14.98328687 43381,6950.197,96.107,574.156,569.968,0.0
56464.0,STARLINK-6043,PAYLOAD,2024-02-22 14:49:02,14.98332169,0.0003068,69.9993,225.4846,269.4132,90.6675,1.838e-05,1.26e-06,0.0,0 STARLINK-6043,1 56464U 23064S   24053.61738988  .00000126  00000-0  18380-4 0  9997,2 56464  69.9993 225.4846 0003068 269.4132  90.6675 14.98332169 43496,6950.186,96.107,574.184,569.919,0.0
56464.0,STARLINK-6043,PAYLOAD,2024-02-22 19:37:26,14.98333569,0.0003068,69.9994,224.9798,269.6777,90.403,3.3449e-05,3.06e-06,0.0,0 STARLINK-6043,1 56464U 23064S   24053.81766823  .00000306  00000-0  33449-4 0  9991,2 56464  69.9994 224.9798 0003068 269.6777  90.4030 14.98333569 43885,6950.182,96.107,574.179,569.915,0.0
56464.0,STARLINK-6043,PAYLOAD,2024-02-22 21:13:34,14.98334016,0.0003066,69.9994,224.8115,269.6964,90.3844,3.7512e-05,3.55e-06,0.0,0 STARLINK-6043,1 56464U 23064S   24053.88442764  .00000355  00000-0  37512-4 0  9992,2 56464  69.9994 224.8115 0003066 269.6964  90.3844 14.98334016 43535,6950.18,96.107,574.176,569.915,0.0
56464.0,STARLINK-6043,PAYLOAD,2024-02-23 11:38:47,14.98327106,0.0003049,69.9996,223.2965,269.7873,90.2936,-1.7428e-05,-3.01e-06,0.0,0 STARLINK-6043,1 56464U 23064S   24054.48527344 -.00000301  00000-0 -17428-4 0  9994,2 56464  69.9996 223.2965 0003049 269.7873  90.2936 14.98327106 43986,6950.202,96.107,574.186,569.948,0.0
56464.0,STARLINK-6043,PAYLOAD,2024-02-23 14:51:03,14.98326948,0.0003053,69.9995,222.9599,269.7826,90.2983,-1.8545e-05,-3.14e-06,0.0,0 STARLINK-6043,1 56464U 23064S   24054.61879379 -.00000314  00000-0 -18545-4 0  9992,2 56464  69.9995 222.9599 0003053 269.7826  90.2983 14.98326948 43645,6950.202,96.107,574.189,569.945,0.0
56464.0,STARLINK-6043,PAYLOAD,2024-02-23 21:15:36,14.98326973,0.0003085,69.9997,222.2868,270.305,89.7756,-3.0531e-05,-4.57e-06,0.0,0 STARLINK-6043,1 56464U 23064S   24054.88583457 -.00000457  00000-0 -30531-4 0  9997,2 56464  69.9997 222.2868 0003085 270.3050  89.7756 14.98326973 43684,6950.202,96.107,574.211,569.923,0.0
56464.0,STARLINK-6043,PAYLOAD,2024-02-24 11:40:48,14.98333241,0.0003075,69.9997,220.772,270.5535,89.5272,1.2824e-05,6e-07,0.0,0 STARLINK-6043,1 56464U 23064S   24055.48666956  .00000060  00000-0  12824-4 0  9993,2 56464  69.9997 220.7720 0003075 270.5535  89.5272 14.98333241 44131,6950.183,96.107,574.185,569.911,0.0
56464.0,STARLINK-6043,PAYLOAD,2024-02-24 13:16:56,14.98333475,0.0003074,69.9997,220.6037,270.5553,89.5253,1.5341e-05,9e-07,0.0,0 STARLINK-6043,1 56464U 23064S   24055.55342923  .00000090  00000-0  15341-4 0  9996,2 56464  69.9997 220.6037 0003074 270.5553  89.5253 14.98333475 43788,6950.182,96.107,574.184,569.911,0.0
56464.0,STARLINK-6043,PAYLOAD,2024-02-25 11:42:49,14.98329033,0.0003048,70.0001,218.2473,272.1632,87.9178,5.0371e-05,5.08e-06,0.0,0 STARLINK-6043,1 56464U 23064S   24056.48806917  .00000508  00000-0  50371-4 0  9993,2 56464  70.0001 218.2473 0003048 272.1632  87.9178 14.98329033 44280,6950.196,96.107,574.179,569.942,0.0
56464.0,STARLINK-6043,PAYLOAD,2024-02-25 14:55:05,14.98329136,0.0003049,70.0,217.9106,272.1084,87.9726,4.8879e-05,4.9e-06,0.0,0 STARLINK-6043,1 56464U 23064S   24056.62158914  .00000490  00000-0  48879-4 0  9996,2 56464  70.0000 217.9106 0003049 272.1084  87.9726 14.98329136 43945,6950.196,96.107,574.18,569.941,0.0
56464.0,STARLINK-6043,PAYLOAD,2024-02-25 19:43:29,14.98331759,0.0002982,70.0002,217.4061,271.0014,89.0804,8.1823e-05,8.83e-06,0.0,0 STARLINK-6043,1 56464U 23064S   24056.82186642  .00000883  00000-0  81823-4 0  9999,2 56464  70.0002 217.4061 0002982 271.0014  89.0804 14.98331759 43975,6950.187,96.107,574.125,569.98,0.0
56464.0,STARLINK-6043,PAYLOAD,2024-02-26 11:44:50,14.98326368,0.0002771,70.0004,215.723,268.8186,91.2656,-7.5741e-05,-9.96e-06,0.0,0 STARLINK-6043,1 56464U 23064S   24057.48947429 -.00000996  00000-0 -75741-4 0  9999,2 56464  70.0004 215.7230 0002771 268.8186  91.2656 14.98326368 44438,6950.204,96.107,573.995,570.143,0.0
56464.0,STARLINK-6043,PAYLOAD,2024-02-26 14:57:06,14.98325688,0.0002801,70.0004,215.3864,269.2954,90.7884,-8.1879e-05,-1.07e-05,0.0,0 STARLINK-6043,1 56464U 23064S   24057.62299511 -.00001070  00000-0 -81879-4 0  9990,2 56464  70.0004 215.3864 0002801 269.2954  90.7884 14.98325688 44092,6950.206,96.107,574.018,570.124,0.0
56464.0,STARLINK-6043,PAYLOAD,2024-02-26 21:21:39,14.98326253,0.0002786,70.0005,214.7129,268.5311,91.5529,-7.1272e-05,-9.43e-06,0.0,0 STARLINK-6043,1 56464U 23064S   24057.89003506 -.00000943  00000-0 -71272-4 0  9990,2 56464  70.0005 214.7129 0002786 268.5311  91.5529 14.98326253 44130,6950.204,96.107,574.006,570.133,0.0
56464.0,STARLINK-6043,PAYLOAD,2024-02-27 11:46:51,14.98330193,0.0002821,70.0006,213.1981,268.9071,91.1764,-2.3705e-05,-3.76e-06,0.0,0 STARLINK-6043,1 56464U 23064S   24058.49087176 -.00000376  00000-0 -23705-4 0  9990,2 56464  70.0006 213.1981 0002821 268.9071  91.1764 14.98330193 44581,6950.192,96.107,574.018,570.097,0.0
56464.0,STARLINK-6043,PAYLOAD,2024-02-27 14:59:07,14.98329893,0.0002833,70.0006,212.8615,268.8665,91.2169,-2.3538e-05,-3.74e-06,0.0,0 STARLINK-6043,1 56464U 23064S   24058.62439193 -.00000374  00000-0 -23538-4 0  9997,2 56464  70.0006 212.8615 0002833 268.8665  91.2169 14.98329893 44240,6950.193,96.107,574.027,570.089,0.0
56464.0,STARLINK-6043,PAYLOAD,2024-02-27 19:47:31,14.98328331,0.0002823,70.0006,212.3564,266.2657,93.818,-1.7036e-05,-2.96e-06,0.0,0 STARLINK-6043,1 56464U 23064S   24058.82467261 -.00000296  00000-0 -17036-4 0  9995,2 56464  70.0006 212.3564 0002823 266.2657  93.8180 14.98328331 44270,6950.198,96.107,574.025,570.101,0.0
56464.0,STARLINK-6043,PAYLOAD,2024-02-28 13:25:00,14.98326366,0.0002972,70.0002,210.5048,266.4893,93.5926,8.7296e-05,9.49e-06,0.0,0 STARLINK-6043,1 56464U 23064S   24059.55903106  .00000949  00000-0  87296-4 0  9997,2 56464  70.0002 210.5048 0002972 266.4893  93.5926 14.98326366 44745,6950.204,96.107,574.135,570.004,0.0
56464.0,STARLINK-6043,PAYLOAD,2024-02-28 19:49:32,14.9832891,0.0003003,70.0003,209.8322,267.5665,92.515,7.7321e-05,8.3e-06,0.0,0 STARLINK-6043,1 56464U 23064S   24059.82607016  .00000830  00000-0  77321-4 0  9995,2 56464  70.0003 209.8322 0003003 267.5665  92.5150 14.98328910 44427,6950.196,96.107,574.148,569.974,0.0
56464.0,STARLINK-6043,PAYLOAD,2024-02-29 15:03:09,14.98328953,0.0003117,69.9999,207.8112,269.3762,90.704,-3.1364e-05,-4.67e-06,0.0,0 STARLINK-6043,1 56464U 23064S   24060.62719382 -.00000467  00000-0 -31364-4 0  9990,2 56464  69.9999 207.8112 0003117 269.3762  90.7040 14.98328953 44545,6950.196,96.107,574.228,569.895,0.0
56464.0,STARLINK-6043,PAYLOAD,2024-02-29 19:51:33,14.98329277,0.0003084,70.0002,207.3066,269.639,90.4415,-1.0611e-05,-2.2e-06,0.0,0 STARLINK-6043,1 56464U 23064S   24060.82747329 -.00000220  00000-0 -10611-4 0  9993,2 56464  70.0002 207.3066 0003084 269.6390  90.4415 14.98329277 44935,6950.195,96.107,574.204,569.917,0.0
56464.0,STARLINK-6043,PAYLOAD,2024-03-01 11:52:53,14.98335257,0.0002993,70.0005,205.6237,271.6177,88.4639,3.5496e-05,3.31e-06,0.0,0 STARLINK-6043,1 56464U 23064S   24061.49506753  .00000331  00000-0  35496-4 0  9990,2 56464  70.0005 205.6237 0002993 271.6177  88.4639 14.98335257 45035,6950.177,96.107,574.122,569.961,0.0
